{"type": "FeatureCollection", "features": [{"type": "Feature", "properties": {"norad_id": 26766, "name": "INTELSAT 10 (IS-10)", "group": "intelsat", "lat": -8.6689210522349, "lon": -27.618538596609657, "alt_km": 36102.15627354429, "timestamp": "2025-12-23T09:49:06.743635+00:00", "meta": {"OBJECT_NAME": "INTELSAT 10 (IS-10)", "OBJECT_ID": "2001-019A", "EPOCH": "2025-12-22T17:02:39.635808", "MEAN_MOTION": 0.99073291, "ECCENTRICITY": 0.00077896, "INCLINATION": 8.6516, "RA_OF_ASC_NODE": 61.0562, "ARG_OF_PERICENTER": 228.8792, "MEAN_ANOMALY": 153.0858, "EPHEMERIS_TYPE": 0, "CLASSIFICATION_TYPE": "U", "NORAD_CAT_ID": 26766, "ELEMENT_SET_NO": 999, "REV_AT_EPOCH": 4383, "BSTAR": 0, "MEAN_MOTION_DOT": -4.3e-07, "MEAN_MOTION_DDOT": 0}, "tle": {"line1": "1 26766U 01019A   25356.71018097 -.00000043  00000+0  00000+0 0  9998", "line2": "2 26766   8.6516  61.0562 0007789 228.8792 153.0858  0.99073291 43832"}}, "geometry": {"type": "Point", "coordinates": [-27.618538596609657, -8.6689210522349]}}, {"type": "Feature", "properties": {"norad_id": 26900, "name": "INTELSAT 902 (IS-902)", "group": "intelsat", "lat": 5.131958733271439, "lon": -170.63570063570347, "alt_km": 35781.46496045538, "timestamp": "2025-12-23T09:49:06.743660+00:00", "meta": {"OBJECT_NAME": "INTELSAT 902 (IS-902)", "OBJECT_ID": "2001-039A", "EPOCH": "2025-12-15T13:09:02.081664", "MEAN_MOTION": 1.0027087, "ECCENTRICITY": 0.00045028, "INCLINATION": 5.6536, "RA_OF_ASC_NODE": 74.0372, "ARG_OF_PERICENTER": 189.6359, "MEAN_ANOMALY": 327.9329, "EPHEMERIS_TYPE": 0, "CLASSIFICATION_TYPE": "U", "NORAD_CAT_ID": 26900, "ELEMENT_SET_NO": 999, "REV_AT_EPOCH": 8885, "BSTAR": 0, "MEAN_MOTION_DOT": -2.65e-06, "MEAN_MOTION_DDOT": 0}, "tle": {"line1": "1 26900U 01039A   25349.54794076 -.00000265  00000+0  00000+0 0  9997", "line2": "2 26900   5.6536  74.0372 0004502 189.6359 327.9329  1.00270870 88858"}}, "geometry": {"type": "Point", "coordinates": [-170.63570063570347, 5.131958733271439]}}, {"type": "Feature", "properties": {"norad_id": 27380, "name": "INTELSAT 904 (IS-904)", "group": "intelsat", "lat": 4.442684256896863, "lon": -151.86237625706397, "alt_km": 35795.39713283187, "timestamp": "2025-12-23T09:49:06.743676+00:00", "meta": {"OBJECT_NAME": "INTELSAT 904 (IS-904)", "OBJECT_ID": "2002-007A", "EPOCH": "2025-12-22T11:18:11.320704", "MEAN_MOTION": 1.00267487, "ECCENTRICITY": 0.00022149, "INCLINATION": 6.4781, "RA_OF_ASC_NODE": 71.3212, "ARG_OF_PERICENTER": 339.1477, "MEAN_ANOMALY": 178.8339, "EPHEMERIS_TYPE": 0, "CLASSIFICATION_TYPE": "U", "NORAD_CAT_ID": 27380, "ELEMENT_SET_NO": 999, "REV_AT_EPOCH": 4999, "BSTAR": 0, "MEAN_MOTION_DOT": -2.08e-06, "MEAN_MOTION_DDOT": 0}, "tle": {"line1": "1 27380U 02007A   25356.47096436 -.00000208  00000+0  00000+0 0  9998", "line2": "2 27380   6.4781  71.3212 0002214 339.1477 178.8339  1.00267487 49992"}}, "geometry": {"type": "Point", "coordinates": [-151.86237625706397, 4.442684256896863]}}, {"type": "Feature", "properties": {"norad_id": 27426, "name": "DIRECTV 5 (TEMPO 1)", "group": "intelsat", "lat": 3.5005733193201647, "lon": 129.25321598179917, "alt_km": 35797.29281481359, "timestamp": "2025-12-23T09:49:06.743690+00:00", "meta": {"OBJECT_NAME": "DIRECTV 5 (TEMPO 1)", "OBJECT_ID": "2002-023A", "EPOCH": "2025-12-22T21:12:00.760896", "MEAN_MOTION": 1.00271742, "ECCENTRICITY": 0.00032076, "INCLINATION": 4.4264, "RA_OF_ASC_NODE": 77.5344, "ARG_OF_PERICENTER": 200.9291, "MEAN_ANOMALY": 21.1023, "EPHEMERIS_TYPE": 0, "CLASSIFICATION_TYPE": "U", "NORAD_CAT_ID": 27426, "ELEMENT_SET_NO": 999, "REV_AT_EPOCH": 8635, "BSTAR": 0, "MEAN_MOTION_DOT": -3.8e-07, "MEAN_MOTION_DDOT": 0}, "tle": {"line1": "1 27426U 02023A   25356.88334214 -.00000038  00000+0  00000+0 0  9992", "line2": "2 27426   4.4264  77.5344 0003207 200.9291  21.1023  1.00271742 86353"}}, "geometry": {"type": "Point", "coordinates": [129.25321598179917, 3.5005733193201647]}}, {"type": "Feature", "properties": {"norad_id": 27438, "name": "INTELSAT 905 (IS-905)", "group": "intelsat", "lat": 3.2051445430605106, "lon": 102.12199898437206, "alt_km": 35796.70931357951, "timestamp": "2025-12-23T09:49:06.743703+00:00", "meta": {"OBJECT_NAME": "INTELSAT 905 (IS-905)", "OBJECT_ID": "2002-027A", "EPOCH": "2025-12-22T11:32:40.739712", "MEAN_MOTION": 1.00273062, "ECCENTRICITY": 0.00027239, "INCLINATION": 6.3084, "RA_OF_ASC_NODE": 71.9438, "ARG_OF_PERICENTER": 204.9148, "MEAN_ANOMALY": 210.3946, "EPHEMERIS_TYPE": 0, "CLASSIFICATION_TYPE": "U", "NORAD_CAT_ID": 27438, "ELEMENT_SET_NO": 999, "REV_AT_EPOCH": 4959, "BSTAR": 0, "MEAN_MOTION_DOT": 1.12e-06, "MEAN_MOTION_DDOT": 0}, "tle": {"line1": "1 27438U 02027A   25356.48102708  .00000112  00000+0  00000+0 0  9998", "line2": "2 27438   6.3084  71.9438 0002723 204.9148 210.3946  1.00273062 49594"}}, "geometry": {"type": "Point", "coordinates": [102.12199898437206, 3.2051445430605106]}}, {"type": "Feature", "properties": {"norad_id": 27445, "name": "GALAXY 3C (G-3C)", "group": "intelsat", "lat": 2.979779577074723, "lon": 144.57696318288833, "alt_km": 35781.13548836153, "timestamp": "2025-12-23T09:49:06.743716+00:00", "meta": {"OBJECT_NAME": "GALAXY 3C (G-3C)", "OBJECT_ID": "2002-030A", "EPOCH": "2025-12-22T21:16:22.842336", "MEAN_MOTION": 1.00271667, "ECCENTRICITY": 0.00011537, "INCLINATION": 3.2875, "RA_OF_ASC_NODE": 80.3997, "ARG_OF_PERICENTER": 82.1195, "MEAN_ANOMALY": 153.4043, "EPHEMERIS_TYPE": 0, "CLASSIFICATION_TYPE": "U", "NORAD_CAT_ID": 27445, "ELEMENT_SET_NO": 999, "REV_AT_EPOCH": 4472, "BSTAR": 0, "MEAN_MOTION_DOT": -1.33e-06, "MEAN_MOTION_DDOT": 0}, "tle": {"line1": "1 27445U 02030A   25356.88637549 -.00000133  00000+0  00000+0 0  9994", "line2": "2 27445   3.2875  80.3997 0001153  82.1195 153.4043  1.00271667 44728"}}, "geometry": {"type": "Point", "coordinates": [144.57696318288833, 2.979779577074723]}}, {"type": "Feature", "properties": {"norad_id": 27513, "name": "INTELSAT 906 (IS-906)", "group": "intelsat", "lat": -4.03499330541866, "lon": -56.47039878068144, "alt_km": 35762.50946806059, "timestamp": "2025-12-23T09:49:06.743728+00:00", "meta": {"OBJECT_NAME": "INTELSAT 906 (IS-906)", "OBJECT_ID": "2002-041A", "EPOCH": "2025-12-22T20:19:05.827008", "MEAN_MOTION": 1.00273289, "ECCENTRICITY": 0.00062961, "INCLINATION": 5.3553, "RA_OF_ASC_NODE": 75.111, "ARG_OF_PERICENTER": 200.9924, "MEAN_ANOMALY": 184.4567, "EPHEMERIS_TYPE": 0, "CLASSIFICATION_TYPE": "U", "NORAD_CAT_ID": 27513, "ELEMENT_SET_NO": 999, "REV_AT_EPOCH": 8526, "BSTAR": 0, "MEAN_MOTION_DOT": 3.1e-07, "MEAN_MOTION_DDOT": 0}, "tle": {"line1": "1 27513U 02041A   25356.84659522  .00000031  00000+0  00000+0 0  9999", "line2": "2 27513   5.3553  75.1110 0006296 200.9924 184.4567  1.00273289 85263"}}, "geometry": {"type": "Point", "coordinates": [-56.47039878068144, -4.03499330541866]}}, {"type": "Feature", "properties": {"norad_id": 27954, "name": "GALAXY 13 (HORIZONS-1)", "group": "intelsat", "lat": 0.07596099874627513, "lon": 89.440045503079, "alt_km": 35796.25146948239, "timestamp": "2025-12-23T09:49:06.743740+00:00", "meta": {"OBJECT_NAME": "GALAXY 13 (HORIZONS-1)", "OBJECT_ID": "2003-044A", "EPOCH": "2025-12-22T17:35:14.017632", "MEAN_MOTION": 1.00270802, "ECCENTRICITY": 0.00023589, "INCLINATION": 0.9625, "RA_OF_ASC_NODE": 86.3388, "ARG_OF_PERICENTER": 181.1496, "MEAN_ANOMALY": 297.8246, "EPHEMERIS_TYPE": 0, "CLASSIFICATION_TYPE": "U", "NORAD_CAT_ID": 27954, "ELEMENT_SET_NO": 999, "REV_AT_EPOCH": 4480, "BSTAR": 0, "MEAN_MOTION_DOT": 1.54e-06, "MEAN_MOTION_DDOT": 0}, "tle": {"line1": "1 27954U 03044A   25356.73280113  .00000154  00000+0  00000+0 0  9992", "line2": "2 27954   0.9625  86.3388 0002358 181.1496 297.8246  1.00270802 44809"}}, "geometry": {"type": "Point", "coordinates": [89.440045503079, 0.07596099874627513]}}, {"type": "Feature", "properties": {"norad_id": 28358, "name": "INTELSAT 10-02", "group": "intelsat", "lat": -0.009904194192416137, "lon": -121.49905181218499, "alt_km": 35784.643182766085, "timestamp": "2025-12-23T09:49:06.743765+00:00", "meta": {"OBJECT_NAME": "INTELSAT 10-02", "OBJECT_ID": "2004-022A", "EPOCH": "2025-12-22T21:43:12.772416", "MEAN_MOTION": 1.00271487, "ECCENTRICITY": 0.0001072, "INCLINATION": 0.014, "RA_OF_ASC_NODE": 63.3952, "ARG_OF_PERICENTER": 245.9511, "MEAN_ANOMALY": 107.2016, "EPHEMERIS_TYPE": 0, "CLASSIFICATION_TYPE": "U", "NORAD_CAT_ID": 28358, "ELEMENT_SET_NO": 999, "REV_AT_EPOCH": 7878, "BSTAR": 0, "MEAN_MOTION_DOT": 1.1e-07, "MEAN_MOTION_DDOT": 0}, "tle": {"line1": "1 28358U 04022A   25356.90500894  .00000011  00000+0  00000+0 0  9990", "line2": "2 28358   0.0140  63.3952 0001072 245.9511 107.2016  1.00271487 78785"}}, "geometry": {"type": "Point", "coordinates": [-121.49905181218499, -0.009904194192416137]}}, {"type": "Feature", "properties": {"norad_id": 28626, "name": "XM-3 (RHYTHM)", "group": "intelsat", "lat": -0.15250066039033605, "lon": -56.97096756798115, "alt_km": 36155.83456060606, "timestamp": "2025-12-23T09:49:06.743792+00:00", "meta": {"OBJECT_NAME": "XM-3 (RHYTHM)", "OBJECT_ID": "2005-008A", "EPOCH": "2025-12-22T22:02:18.444192", "MEAN_MOTION": 0.98949886, "ECCENTRICITY": 0.00020576, "INCLINATION": 0.1994, "RA_OF_ASC_NODE": 82.0954, "ARG_OF_PERICENTER": 276.3831, "MEAN_ANOMALY": 129.7274, "EPHEMERIS_TYPE": 0, "CLASSIFICATION_TYPE": "U", "NORAD_CAT_ID": 28626, "ELEMENT_SET_NO": 999, "REV_AT_EPOCH": 4085, "BSTAR": 0, "MEAN_MOTION_DOT": 9.7e-07, "MEAN_MOTION_DDOT": 0}, "tle": {"line1": "1 28626U 05008A   25356.91826903  .00000097  00000+0  00000+0 0  9990", "line2": "2 28626   0.1994  82.0954 0002057 276.3831 129.7274  0.98949886 40851"}}, "geometry": {"type": "Point", "coordinates": [-56.97096756798115, -0.15250066039033605]}}]}